H1 CPF 01  gfz 2022 03 17 13  5762 terrasarx 
H2 0702601  6201 31698    2022 03 17 12 59 42 2022 03 22 00 00 42   120 1 1  0 0 0
H9
10 0 59657  56142.000000  0    5213014.621   4137670.213  -1788444.393
10 0 59657  56262.000000  0    5461927.047   4103137.774   -901665.027
10 0 59657  56382.000000  0    5614192.021   3993437.372       971.034
10 0 59657  56502.000000  0    5665808.775   3812170.460    903589.038
10 0 59657  56622.000000  0    5614626.403   3564258.582   1790298.722
10 0 59657  56742.000000  0    5460406.597   3255823.801   2645482.980
10 0 59657  56862.000000  0    5204847.342   2894046.163   3454081.724
10 0 59657  56982.000000  0    4851566.904   2487000.414   4201864.621
10 0 59657  57102.000000  0    4406047.849   2043475.903   4875684.769
10 0 59657  57222.000000  0    3875547.554   1572787.521   5463710.104
10 0 59657  57342.000000  0    3268971.408   1084579.398   5955631.680
10 0 59657  57462.000000  0    2596714.308    588625.480   6342838.448
10 0 59657  57582.000000  0    1870477.083     94634.498   6618560.144
10 0 59657  57702.000000  0    1103060.289   -387938.543   6777980.718
10 0 59657  57822.000000  0     308135.953   -850072.944   6818318.760
10 0 59657  57942.000000  0    -499997.121  -1283350.386   6738871.929
10 0 59657  58062.000000  0   -1306670.125  -1680107.973   6541027.752
10 0 59657  58182.000000  0   -2097109.192  -2033573.666   6228239.398
10 0 59657  58302.000000  0   -2856703.489  -2337981.166   5805969.622
10 0 59657  58422.000000  0   -3571276.666  -2588665.839   5281604.265
10 0 59657  58542.000000  0   -4227356.880  -2782138.711   4664328.581
10 0 59657  58662.000000  0   -4812435.882  -2916135.589   3964970.368
10 0 59657  58782.000000  0   -5315213.640  -2989640.318   3195813.319
10 0 59657  58902.000000  0   -5725823.839  -3002882.587   2370383.623
10 0 59657  59022.000000  0   -6036035.982  -2957310.714   1503211.171
10 0 59657  59142.000000  0   -6239427.122  -2855538.802    609568.133
10 0 59657  59262.000000  0   -6331517.864  -2701267.894   -294807.298
10 0 59657  59382.000000  0   -6309871.120  -2499185.363  -1193996.657
10 0 59657  59502.000000  0   -6174148.324  -2254843.351  -2072191.645
10 0 59657  59622.000000  0   -5926121.966  -1974520.617  -2913979.449
10 0 59657  59742.000000  0   -5569646.941  -1665071.575  -3704617.902
10 0 59657  59862.000000  0   -5110590.796  -1333766.412  -4430295.318
10 0 59657  59982.000000  0   -4556725.996   -988126.385  -5078369.728
10 0 59657  60102.000000  0   -3917586.640   -635757.849  -5637583.990
10 0 59657  60222.000000  0   -3204293.606   -284189.405  -6098252.163
10 0 59657  60342.000000  0   -2429353.677     59284.403  -6452415.787
10 0 59657  60462.000000  0   -1606436.605    387749.333  -6693969.723
10 0 59657  60582.000000  0    -750133.746    694805.051  -6818756.472
10 0 59657  60702.000000  0     124296.472    974685.936  -6824629.377
10 0 59657  60822.000000  0    1001193.111   1222365.724  -6711485.077
10 0 59657  60942.000000  0    1864766.497   1433645.210  -6481267.952
10 0 59657  61062.000000  0    2699377.262   1605223.105  -6137940.472
10 0 59657  61182.000000  0    3489815.432   1734747.219  -5687421.520
10 0 59657  61302.000000  0    4221574.360   1820845.543  -5137493.723
10 0 59657  61422.000000  0    4881118.315   1863137.784  -4497681.326
10 0 59657  61542.000000  0    5456138.391   1862226.324  -3779095.655
10 0 59657  61662.000000  0    5935789.649   1819665.998  -2994251.003
10 0 59657  61782.000000  0    6310906.112   1737913.541  -2156854.009
10 0 59657  61902.000000  0    6574188.322   1620257.873  -1281566.674
10 0 59657  62022.000000  0    6720356.334   1470731.450   -383748.005
10 0 59657  62142.000000  0    6746264.493   1294004.638    520821.002
10 0 59657  62262.000000  0    6650972.573   1095266.730   1416221.384
10 0 59657  62382.000000  0    6435776.166    880095.946   2286684.338
10 0 59657  62502.000000  0    6104189.716    654320.633   3116879.049
10 0 59657  62622.000000  0    5661884.997    423876.727   3892189.902
10 0 59657  62742.000000  0    5116585.586    194664.677   4598979.385
10 0 59657  62862.000000  0    4477923.153    -27589.334   5224829.165
10 0 59657  62982.000000  0    3757257.190   -237467.237   5758758.958
10 0 59657  63102.000000  0    2967462.353   -429982.305   6191414.707
10 0 59657  63222.000000  0    2122691.401   -600689.559   6515226.676
10 0 59657  63342.000000  0    1238117.088   -745782.467   6724536.383
10 0 59657  63462.000000  0     329655.861   -862173.926   6815690.712
10 0 59657  63582.000000  0    -586320.016   -947559.376   6787100.398
10 0 59657  63702.000000  0   -1493276.607  -1000461.902   6639265.051
10 0 59657  63822.000000  0   -2374815.257  -1020257.746   6374764.305
10 0 59657  63942.000000  0   -3214967.188  -1007181.955   5998215.801
10 0 59657  64062.000000  0   -3998483.999   -962314.473   5516201.553
10 0 59657  64182.000000  0   -4711119.303   -887547.831   4937159.656
10 0 59657  64302.000000  0   -5339894.909   -785535.768   4271241.931
10 0 59657  64422.000000  0   -5873345.418   -659623.763   3530139.452
10 0 59657  64542.000000  0   -6301735.746   -513762.927   2726879.479
10 0 59657  64662.000000  0   -6617249.130   -352409.092   1875597.486
10 0 59657  64782.000000  0   -6814140.257   -180409.055    991284.629
10 0 59657  64902.000000  0   -6888846.785     -2877.698     89516.684
10 0 59657  65022.000000  0   -6840057.170    174931.777   -813828.867
10 0 59657  65142.000000  0   -6668732.537    347761.197  -1702861.740
10 0 59657  65262.000000  0   -6378082.616    510480.103  -2561965.410
10 0 59657  65382.000000  0   -5973499.558    658215.007  -3376078.008
10 0 59657  65502.000000  0   -5462445.817    786472.204  -4130961.647
10 0 59657  65622.000000  0   -4854302.998    891250.688  -4813450.485
10 0 59657  65742.000000  0   -4160186.609    969142.300  -5411675.963
10 0 59657  65862.000000  0   -3392731.812   1017417.232  -5915264.854
10 0 59657  65982.000000  0   -2565855.283   1034092.737  -6315508.616
10 0 59657  66102.000000  0   -1694499.111   1017984.602  -6605502.193
10 0 59657  66222.000000  0    -794359.981    968741.567  -6780252.222
10 0 59657  66342.000000  0     118389.917    886860.607  -6836752.366
10 0 59657  66462.000000  0    1027385.461    773683.967  -6774029.461
10 0 59657  66582.000000  0    1916355.322    631377.481  -6593161.149
10 0 59657  66702.000000  0    2769407.604    462890.575  -6297259.071
10 0 59657  66822.000000  0    3571309.202    271899.026  -5891420.964
10 0 59657  66942.000000  0    4307754.910     62729.935  -5382650.934
10 0 59657  67062.000000  0    4965622.900   -159728.983  -4779750.175
10 0 59657  67182.000000  0    5533214.621   -390134.564  -4093176.441
10 0 59657  67302.000000  0    6000471.217   -622806.487  -3334871.998
10 0 59657  67422.000000  0    6359162.622   -851856.259  -2518063.873
10 0 59657  67542.000000  0    6603045.468  -1071324.473  -1657037.634
10 0 59657  67662.000000  0    6727984.273  -1275322.334   -766887.618
10 0 59657  67782.000000  0    6732032.003  -1458174.499    136750.754
10 0 59657  67902.000000  0    6615468.404  -1614559.668   1037981.744
10 0 59657  68022.000000  0    6380792.678  -1739645.292   1920937.500
10 0 59657  68142.000000  0    6032671.966  -1829212.995   2770066.513
10 0 59657  68262.000000  0    5577845.176  -1879770.120   3570416.557
10 0 59657  68382.000000  0    5024985.405  -1888646.138   4307903.928
10 0 59657  68502.000000  0    4384525.739  -1854070.680   4969564.035
10 0 59657  68622.000000  0    3668454.096  -1775231.105   5543779.830
10 0 59657  68742.000000  0    2890079.613  -1652309.735   6020484.659
10 0 59657  68862.000000  0    2063777.035  -1486499.201   6391333.298
10 0 59657  68982.000000  0    1204716.283  -1279996.552   6649842.272
10 0 59657  69102.000000  0     328580.190  -1035975.399   6791497.565
10 0 59657  69222.000000  0    -548723.194   -758536.504   6813827.711
10 0 59657  69342.000000  0   -1411348.413   -452638.654   6716443.118
10 0 59657  69462.000000  0   -2243797.272   -124010.310   6501042.315
10 0 59657  69582.000000  0   -3031196.009    220956.955   6171384.684
10 0 59657  69702.000000  0   -3759561.812    575331.330   5733229.975
10 0 59657  69822.000000  0   -4416054.857    931777.764   5194243.882
10 0 59657  69942.000000  0   -4989210.509   1282707.285   4563869.946
10 0 59657  70062.000000  0   -5469147.600   1620436.236   3853169.070
10 0 59657  70182.000000  0   -5847747.048   1937351.412   3074628.199
10 0 59657  70302.000000  0   -6118797.819   2226077.860   2241942.151
10 0 59657  70422.000000  0   -6278107.307   2479645.489   1369771.206
10 0 59657  70542.000000  0   -6323572.408   2691650.744    473477.453
10 0 59657  70662.000000  0   -6255207.460   2856408.222   -431153.807
10 0 59657  70782.000000  0   -6075129.798   2969088.545  -1328200.854
10 0 59657  70902.000000  0   -5787502.711   3025839.007  -2201894.548
10 0 59657  71022.000000  0   -5398437.141   3023884.410  -3036904.097
10 0 59657  71142.000000  0   -4915854.451   2961604.254  -3818611.118
10 0 59657  71262.000000  0   -4349315.821   2838585.882  -4533366.809
10 0 59657  71382.000000  0   -3709822.873   2655652.229  -5168727.167
10 0 59657  71502.000000  0   -3009595.221   2414864.214  -5713662.079
10 0 59657  71622.000000  0   -2261831.966   2119499.215  -6158736.973
10 0 59657  71742.000000  0   -1480459.113   1774005.233  -6496266.253
10 0 59657  71862.000000  0    -679869.737   1383931.853  -6720433.438
10 0 59657  71982.000000  0     125337.434    955840.423  -6827381.047
10 0 59657  72102.000000  0     920617.561    497195.084  -6815269.456
10 0 59657  72222.000000  0    1691736.702     16235.371  -6684307.232
10 0 59657  72342.000000  0    2425021.362   -478168.656  -6436746.811
10 0 59657  72462.000000  0    3107595.770   -976675.414  -6076850.363
10 0 59657  72582.000000  0    3727605.710  -1469643.486  -5610823.461
99
